[{"OBJECT_NAME":"HAWK-11B","OBJECT_ID":"2024-247C","EPOCH":"2026-03-09T10:44:06.809856","MEAN_MOTION":15.2884707,"ECCENTRICITY":0.00046902,"INCLINATION":45.0161,"RA_OF_ASC_NODE":115.761,"ARG_OF_PERICENTER":333.0326,"MEAN_ANOMALY":27.0314,"EPHEMERIS_TYPE":0,"CLASSIFICATION_TYPE":"U","NORAD_CAT_ID":62379,"ELEMENT_SET_NO":999,"REV_AT_EPOCH":6773,"BSTAR":0.00032841927,"MEAN_MOTION_DOT":9.093e-5,"MEAN_MOTION_DDOT":0},{"OBJECT_NAME":"STARLINK-35436","OBJECT_ID":"2025-225Y","EPOCH":"2026-03-09T12:31:31.190592","MEAN_MOTION":15.30187412,"ECCENTRICITY":8.792e-5,"INCLINATION":53.1603,"RA_OF_ASC_NODE":166.3686,"ARG_OF_PERICENTER":147.9088,"MEAN_ANOMALY":212.1967,"EPHEMERIS_TYPE":0,"CLASSIFICATION_TYPE":"U","NORAD_CAT_ID":65932,"ELEMENT_SET_NO":999,"REV_AT_EPOCH":2438,"BSTAR":0.001106171,"MEAN_MOTION_DOT":0.00032533,"MEAN_MOTION_DDOT":0}]
